CCSDS_OMM_VERS = 2.0
CREATION_DATE  = 
ORIGINATOR     = 

OBJECT_NAME    = DISKSAT D
OBJECT_ID      = 2025-305C
CENTER_NAME    = EARTH
REF_FRAME      = TEME
TIME_SYSTEM    = UTC
MEAN_ELEMENT_THEORY = SGP/SGP4

EPOCH          = 2026-01-15T10:47:23.139168
MEAN_MOTION    = 15.06308907
ECCENTRICITY   = .000183
INCLINATION    = 45.0014
RA_OF_ASC_NODE = 172.4060
ARG_OF_PERICENTER = 47.9747
MEAN_ANOMALY   = 312.1284

EPHEMERIS_TYPE = 0
CLASSIFICATION_TYPE = U
NORAD_CAT_ID   = 67221
ELEMENT_SET_NO = 999
REV_AT_EPOCH   = 426
BSTAR          = .41853E-3
MEAN_MOTION_DOT = .6014E-4
MEAN_MOTION_DDOT = 0

CCSDS_OMM_VERS = 2.0
CREATION_DATE  = 
ORIGINATOR     = 

OBJECT_NAME    = DISKSAT A
OBJECT_ID      = 2025-305D
CENTER_NAME    = EARTH
REF_FRAME      = TEME
TIME_SYSTEM    = UTC
MEAN_ELEMENT_THEORY = SGP/SGP4

EPOCH          = 2026-01-15T10:49:06.932352
MEAN_MOTION    = 15.06275711
ECCENTRICITY   = .0001781
INCLINATION    = 45.0018
RA_OF_ASC_NODE = 172.4146
ARG_OF_PERICENTER = 58.7487
MEAN_ANOMALY   = 301.3562

EPHEMERIS_TYPE = 0
CLASSIFICATION_TYPE = U
NORAD_CAT_ID   = 67222
ELEMENT_SET_NO = 999
REV_AT_EPOCH   = 425
BSTAR          = .48649E-3
MEAN_MOTION_DOT = .7024E-4
MEAN_MOTION_DDOT = 0

CCSDS_OMM_VERS = 2.0
CREATION_DATE  = 
ORIGINATOR     = 

OBJECT_NAME    = ELECTRON KICK STAGE R/B
OBJECT_ID      = 2025-305E
CENTER_NAME    = EARTH
REF_FRAME      = TEME
TIME_SYSTEM    = UTC
MEAN_ELEMENT_THEORY = SGP/SGP4

EPOCH          = 2026-01-15T09:44:33.168480
MEAN_MOTION    = 15.54022427
ECCENTRICITY   = .0161904
INCLINATION    = 44.9839
RA_OF_ASC_NODE = 161.9975
ARG_OF_PERICENTER = 303.2685
MEAN_ANOMALY   = 55.2785

EPHEMERIS_TYPE = 0
CLASSIFICATION_TYPE = U
NORAD_CAT_ID   = 67223
ELEMENT_SET_NO = 999
REV_AT_EPOCH   = 438
BSTAR          = .74323E-3
MEAN_MOTION_DOT = .86759E-3
MEAN_MOTION_DDOT = .10493E-4

CCSDS_OMM_VERS = 2.0
CREATION_DATE  = 
ORIGINATOR     = 

OBJECT_NAME    = TJS-23
OBJECT_ID      = 2025-306A
CENTER_NAME    = EARTH
REF_FRAME      = TEME
TIME_SYSTEM    = UTC
MEAN_ELEMENT_THEORY = SGP/SGP4

EPOCH          = 2026-01-15T00:34:07.572000
MEAN_MOTION    = 1.00270213
ECCENTRICITY   = .0000566
INCLINATION    = 5.9360
RA_OF_ASC_NODE = 298.2772
ARG_OF_PERICENTER = 61.8002
MEAN_ANOMALY   = 298.4205

EPHEMERIS_TYPE = 0
CLASSIFICATION_TYPE = U
NORAD_CAT_ID   = 67226
ELEMENT_SET_NO = 999
REV_AT_EPOCH   = 35
BSTAR          = 0
MEAN_MOTION_DOT = .44E-6
MEAN_MOTION_DDOT = 0

CCSDS_OMM_VERS = 2.0
CREATION_DATE  = 
ORIGINATOR     = 

OBJECT_NAME    = CZ-5 R/B
OBJECT_ID      = 2025-306B
CENTER_NAME    = EARTH
REF_FRAME      = TEME
TIME_SYSTEM    = UTC
MEAN_ELEMENT_THEORY = SGP/SGP4

EPOCH          = 2026-01-14T03:30:35.927424
MEAN_MOTION    = 1.92528837
ECCENTRICITY   = .75779031
INCLINATION    = 16.2725
RA_OF_ASC_NODE = 290.8683
ARG_OF_PERICENTER = 194.1146
MEAN_ANOMALY   = 117.2677

EPHEMERIS_TYPE = 0
CLASSIFICATION_TYPE = U
NORAD_CAT_ID   = 67227
ELEMENT_SET_NO = 999
REV_AT_EPOCH   = 49
BSTAR          = .18958467E-2
MEAN_MOTION_DOT = .6763E-4
MEAN_MOTION_DDOT = 0

CCSDS_OMM_VERS = 2.0
CREATION_DATE  = 
ORIGINATOR     = 

OBJECT_NAME    = QPS-SAR-15
OBJECT_ID      = 2025-307A
CENTER_NAME    = EARTH
REF_FRAME      = TEME
TIME_SYSTEM    = UTC
MEAN_ELEMENT_THEORY = SGP/SGP4

EPOCH          = 2026-01-15T07:32:56.918688
MEAN_MOTION    = 14.97370393
ECCENTRICITY   = .0007705
INCLINATION    = 42.0083
RA_OF_ASC_NODE = 346.4672
ARG_OF_PERICENTER = 71.7855
MEAN_ANOMALY   = 288.3808

EPHEMERIS_TYPE = 0
CLASSIFICATION_TYPE = U
NORAD_CAT_ID   = 67228
ELEMENT_SET_NO = 999
REV_AT_EPOCH   = 375
BSTAR          = .27371E-3
MEAN_MOTION_DOT = .3054E-4
MEAN_MOTION_DDOT = 0

CCSDS_OMM_VERS = 2.0
CREATION_DATE  = 
ORIGINATOR     = 

OBJECT_NAME    = ELECTRON R/B
OBJECT_ID      = 2025-307B
CENTER_NAME    = EARTH
REF_FRAME      = TEME
TIME_SYSTEM    = UTC
MEAN_ELEMENT_THEORY = SGP/SGP4

EPOCH          = 2026-01-15T07:54:52.622208
MEAN_MOTION    = 15.87969707
ECCENTRICITY   = .0135966
INCLINATION    = 41.9916
RA_OF_ASC_NODE = 330.6374
ARG_OF_PERICENTER = 61.5938
MEAN_ANOMALY   = 299.8548

EPHEMERIS_TYPE = 0
CLASSIFICATION_TYPE = U
NORAD_CAT_ID   = 67229
ELEMENT_SET_NO = 999
REV_AT_EPOCH   = 393
BSTAR          = .14909E-2
MEAN_MOTION_DOT = .956479E-2
MEAN_MOTION_DDOT = .78009E-5

CCSDS_OMM_VERS = 2.0
CREATION_DATE  = 
ORIGINATOR     = 

OBJECT_NAME    = ELECTRON KICK STAGE R/B
OBJECT_ID      = 2025-307C
CENTER_NAME    = EARTH
REF_FRAME      = TEME
TIME_SYSTEM    = UTC
MEAN_ELEMENT_THEORY = SGP/SGP4

EPOCH          = 2026-01-15T12:58:27.791616
MEAN_MOTION    = 16.27861166
ECCENTRICITY   = .0041833
INCLINATION    = 41.9953
RA_OF_ASC_NODE = 326.9461
ARG_OF_PERICENTER = 101.3020
MEAN_ANOMALY   = 259.2557

EPHEMERIS_TYPE = 0
CLASSIFICATION_TYPE = U
NORAD_CAT_ID   = 67230
ELEMENT_SET_NO = 999
REV_AT_EPOCH   = 239
BSTAR          = .12195E-2
MEAN_MOTION_DOT = .6272261E-1
MEAN_MOTION_DDOT = .83246E-5

CCSDS_OMM_VERS = 2.0
CREATION_DATE  = 
ORIGINATOR     = 

OBJECT_NAME    = SPACEMOBILE-006
OBJECT_ID      = 2025-309A
CENTER_NAME    = EARTH
REF_FRAME      = TEME
TIME_SYSTEM    = UTC
MEAN_ELEMENT_THEORY = SGP/SGP4

EPOCH          = 2026-01-14T18:47:47.195232
MEAN_MOTION    = 15.17741798
ECCENTRICITY   = .00119798
INCLINATION    = 52.9987
RA_OF_ASC_NODE = 313.8292
ARG_OF_PERICENTER = 28.5701
MEAN_ANOMALY   = 331.5946

EPHEMERIS_TYPE = 0
CLASSIFICATION_TYPE = U
NORAD_CAT_ID   = 67232
ELEMENT_SET_NO = 999
REV_AT_EPOCH   = 329
BSTAR          = .8365645E-5
MEAN_MOTION_DOT = -.15E-5
MEAN_MOTION_DDOT = 0

CCSDS_OMM_VERS = 2.0
CREATION_DATE  = 
ORIGINATOR     = 

OBJECT_NAME    = LVM3 R/B
OBJECT_ID      = 2025-309B
CENTER_NAME    = EARTH
REF_FRAME      = TEME
TIME_SYSTEM    = UTC
MEAN_ELEMENT_THEORY = SGP/SGP4

EPOCH          = 2026-01-14T22:55:03.508608
MEAN_MOTION    = 15.19675457
ECCENTRICITY   = .00117345
INCLINATION    = 52.9285
RA_OF_ASC_NODE = 312.5282
ARG_OF_PERICENTER = 54.0600
MEAN_ANOMALY   = 306.1481

EPHEMERIS_TYPE = 0
CLASSIFICATION_TYPE = U
NORAD_CAT_ID   = 67233
ELEMENT_SET_NO = 999
REV_AT_EPOCH   = 332
BSTAR          = .23538642E-3
MEAN_MOTION_DOT = .4771E-4
MEAN_MOTION_DDOT = 0

CCSDS_OMM_VERS = 2.0
CREATION_DATE  = 
ORIGINATOR     = 

OBJECT_NAME    = 2025-310A
OBJECT_ID      = 2025-310A
CENTER_NAME    = EARTH
REF_FRAME      = TEME
TIME_SYSTEM    = UTC
MEAN_ELEMENT_THEORY = SGP/SGP4

EPOCH          = 2026-01-14T17:20:52.977696
MEAN_MOTION    = 14.75705364
ECCENTRICITY   = .0001912
INCLINATION    = 97.9664
RA_OF_ASC_NODE = 24.2349
ARG_OF_PERICENTER = 179.1290
MEAN_ANOMALY   = 180.9923

EPHEMERIS_TYPE = 0
CLASSIFICATION_TYPE = U
NORAD_CAT_ID   = 67234
ELEMENT_SET_NO = 999
REV_AT_EPOCH   = 299
BSTAR          = .869375E-5
MEAN_MOTION_DOT = .9E-7
MEAN_MOTION_DDOT = 0

CCSDS_OMM_VERS = 2.0
CREATION_DATE  = 
ORIGINATOR     = 

OBJECT_NAME    = SL-4 R/B
OBJECT_ID      = 2025-310B
CENTER_NAME    = EARTH
REF_FRAME      = TEME
TIME_SYSTEM    = UTC
MEAN_ELEMENT_THEORY = SGP/SGP4

EPOCH          = 2026-01-13T12:41:31.572960
MEAN_MOTION    = 15.58601207
ECCENTRICITY   = .02692124
INCLINATION    = 97.9611
RA_OF_ASC_NODE = 25.1455
ARG_OF_PERICENTER = 8.1947
MEAN_ANOMALY   = 352.3572

EPHEMERIS_TYPE = 0
CLASSIFICATION_TYPE = U
NORAD_CAT_ID   = 67235
ELEMENT_SET_NO = 999
REV_AT_EPOCH   = 294
BSTAR          = .59113359E-3
MEAN_MOTION_DOT = .292788E-2
MEAN_MOTION_DDOT = .2399346E-5

CCSDS_OMM_VERS = 2.0
CREATION_DATE  = 
ORIGINATOR     = 

OBJECT_NAME    = HULIANWANG DIGUI-128
OBJECT_ID      = 2025-311A
CENTER_NAME    = EARTH
REF_FRAME      = TEME
TIME_SYSTEM    = UTC
MEAN_ELEMENT_THEORY = SGP/SGP4

EPOCH          = 2026-01-14T21:58:30.123552
MEAN_MOTION    = 13.90210556
ECCENTRICITY   = .00065581
INCLINATION    = 50.0102
RA_OF_ASC_NODE = 316.2947
ARG_OF_PERICENTER = 343.9922
MEAN_ANOMALY   = 16.0768

EPHEMERIS_TYPE = 0
CLASSIFICATION_TYPE = U
NORAD_CAT_ID   = 67236
ELEMENT_SET_NO = 999
REV_AT_EPOCH   = 278
BSTAR          = .79128692E-4
MEAN_MOTION_DOT = -.48E-6
MEAN_MOTION_DDOT = 0

CCSDS_OMM_VERS = 2.0
CREATION_DATE  = 
ORIGINATOR     = 

OBJECT_NAME    = HULIANWANG DIGUI-129
OBJECT_ID      = 2025-311B
CENTER_NAME    = EARTH
REF_FRAME      = TEME
TIME_SYSTEM    = UTC
MEAN_ELEMENT_THEORY = SGP/SGP4

EPOCH          = 2026-01-14T22:00:20.118528
MEAN_MOTION    = 13.90166821
ECCENTRICITY   = .00078058
INCLINATION    = 50.0091
RA_OF_ASC_NODE = 316.2987
ARG_OF_PERICENTER = 345.5602
MEAN_ANOMALY   = 14.5072

EPHEMERIS_TYPE = 0
CLASSIFICATION_TYPE = U
NORAD_CAT_ID   = 67237
ELEMENT_SET_NO = 999
REV_AT_EPOCH   = 278
BSTAR          = .74839867E-4
MEAN_MOTION_DOT = -.53E-6
MEAN_MOTION_DDOT = 0

CCSDS_OMM_VERS = 2.0
CREATION_DATE  = 
ORIGINATOR     = 

OBJECT_NAME    = HULIANWANG DIGUI-130
OBJECT_ID      = 2025-311C
CENTER_NAME    = EARTH
REF_FRAME      = TEME
TIME_SYSTEM    = UTC
MEAN_ELEMENT_THEORY = SGP/SGP4

EPOCH          = 2026-01-14T22:09:55.164096
MEAN_MOTION    = 13.90218469
ECCENTRICITY   = .00077605
INCLINATION    = 50.0071
RA_OF_ASC_NODE = 316.3281
ARG_OF_PERICENTER = 323.0121
MEAN_ANOMALY   = 37.0241

EPHEMERIS_TYPE = 0
CLASSIFICATION_TYPE = U
NORAD_CAT_ID   = 67238
ELEMENT_SET_NO = 999
REV_AT_EPOCH   = 278
BSTAR          = .83900509E-4
MEAN_MOTION_DOT = -.42E-6
MEAN_MOTION_DDOT = 0

